{"type":"FeatureCollection","features":[{"type":"Feature","properties":{"id":"3105004","name":"Baldim"},"geometry":{"type":"Polygon","coordinates":[[[-43.77342,-19.06151],[-43.76912,-19.06616],[-43.77852,-19.0673],[-43.78083,-19.06481],[-43.78206,-19.06813],[-43.77361,-19.07181],[-43.78769,-19.0741],[-43.78939,-19.07783],[-43.77672,-19.08042],[-43.77231,-19.07648],[-43.76498,-19.08194],[-43.76506,-19.08488],[-43.77247,-19.08528],[-43.77317,-19.09273],[-43.7795,-19.09263],[-43.7782,-19.09931],[-43.75834,-19.09389],[-43.75953,-19.10308],[-43.75361,-19.10427],[-43.75979,-19.10774],[-43.76022,-19.11266],[-43.74773,-19.10932],[-43.74642,-19.10415],[-43.73956,-19.10355],[-43.73722,-19.10973],[-43.74289,-19.11353],[-43.74603,-19.1213],[-43.74301,-19.12887],[-43.74981,-19.12641],[-43.7582,-19.12851],[-43.76089,-19.12591],[-43.762,-19.12982],[-43.7705,-19.13382],[-43.76946,-19.13702],[-43.7512,-19.13518],[-43.74984,-19.1392],[-43.75838,-19.14061],[-43.75954,-19.14354],[-43.75095,-19.1443],[-43.75681,-19.15047],[-43.75206,-19.15757],[-43.75606,-19.16199],[-43.74773,-19.16608],[-43.75958,-19.16902],[-43.76173,-19.17237],[-43.76095,-19.17623],[-43.75489,-19.17352],[-43.75373,-19.17928],[-43.76444,-19.1855],[-43.77057,-19.18419],[-43.77537,-19.19225],[-43.76436,-19.19536],[-43.76409,-19.19927],[-43.76019,-19.19862],[-43.75817,-19.20653],[-43.75134,-19.2038],[-43.75067,-19.21496],[-43.74472,-19.21879],[-43.74503,-19.22373],[-43.751,-19.22853],[-43.74761,-19.23088],[-43.74906,-19.2361],[-43.75305,-19.23721],[-43.75897,-19.25091],[-43.76619,-19.25068],[-43.77175,-19.27885],[-43.7852,-19.29061],[-43.79347,-19.29293],[-43.79636,-19.29061],[-43.80493,-19.30336],[-43.80978,-19.31681],[-43.80664,-19.3313],[-43.81028,-19.33427],[-43.79562,-19.3411],[-43.79406,-19.35239],[-43.80436,-19.37015],[-43.81875,-19.3733],[-43.819,-19.38637],[-43.82247,-19.38817],[-43.8355,-19.38879],[-43.84316,-19.38439],[-43.86075,-19.39145],[-43.87706,-19.38361],[-43.88311,-19.38713],[-43.88614,-19.38311],[-43.89269,-19.38245],[-43.90906,-19.39904],[-43.91214,-19.40599],[-43.92173,-19.41003],[-43.92156,-19.42206],[-43.9288,-19.42477],[-43.92884,-19.4296],[-43.93874,-19.43375],[-43.94681,-19.43191],[-43.94859,-19.42808],[-43.95687,-19.43152],[-43.95823,-19.4129],[-43.96336,-19.40947],[-43.9725,-19.41001],[-43.9765,-19.40273],[-43.98075,-19.39628],[-43.9866,-19.40328],[-43.98975,-19.40441],[-43.98925,-19.39545],[-43.98065,-19.38661],[-43.99034,-19.37744],[-43.97628,-19.36896],[-43.97514,-19.36229],[-43.99906,-19.35421],[-43.9987,-19.34672],[-44.00495,-19.34282],[-44.01989,-19.34508],[-44.00827,-19.33439],[-44.00509,-19.33095],[-43.99998,-19.33517],[-43.98678,-19.33594],[-43.98862,-19.33098],[-43.99886,-19.32651],[-43.99338,-19.3258],[-43.98995,-19.32038],[-43.99261,-19.309],[-43.99011,-19.3045],[-43.98639,-19.30458],[-43.98345,-19.31045],[-43.97289,-19.3097],[-43.97361,-19.30185],[-43.97997,-19.29967],[-43.98361,-19.30232],[-43.98803,-19.29592],[-43.99394,-19.29783],[-43.992,-19.28739],[-44.00389,-19.28512],[-44.0039,-19.28048],[-44.00697,-19.27381],[-43.99711,-19.27518],[-43.99247,-19.26581],[-43.97803,-19.26281],[-43.97917,-19.25626],[-43.95764,-19.25626],[-43.9405,-19.25063],[-43.937,-19.24137],[-43.90851,-19.22688],[-43.89773,-19.21461],[-43.87222,-19.21996],[-43.86063,-19.21357],[-43.85109,-19.21182],[-43.84345,-19.21643],[-43.83694,-19.20606],[-43.83733,-19.19311],[-43.84009,-19.1866],[-43.8382,-19.16025],[-43.84902,-19.15136],[-43.85053,-19.14436],[-43.86167,-19.14471],[-43.85423,-19.10947],[-43.8485,-19.08237],[-43.84095,-19.07164],[-43.83281,-19.07108],[-43.82749,-19.07591],[-43.8117,-19.06813],[-43.80461,-19.06747],[-43.79722,-19.07119],[-43.79264,-19.06859],[-43.795,-19.06601],[-43.79186,-19.0616],[-43.78553,-19.05929],[-43.77342,-19.06151]]]}},{"type":"Feature","properties":{"id":"3106200","name":"Belo Horizonte"},"geometry":{"type":"Polygon","coordinates":[[[-43.94578,-19.77679],[-43.94734,-19.79227],[-43.94319,-19.79761],[-43.9335,-19.79515],[-43.92033,-19.80271],[-43.91375,-19.79714],[-43.90219,-19.80439],[-43.89877,-19.80194],[-43.89836,-19.80854],[-43.88934,-19.81541],[-43.87667,-19.81337],[-43.87581,-19.81851],[-43.86936,-19.81947],[-43.86836,-19.82499],[-43.86184,-19.82691],[-43.86558,-19.83088],[-43.86309,-19.83708],[-43.86752,-19.83949],[-43.86632,-19.84719],[-43.8569,-19.85733],[-43.86253,-19.85544],[-43.87678,-19.86701],[-43.88213,-19.86134],[-43.8962,-19.8636],[-43.89892,-19.87453],[-43.90913,-19.87576],[-43.90556,-19.88556],[-43.89123,-19.88486],[-43.88992,-19.89188],[-43.88651,-19.89197],[-43.88133,-19.90117],[-43.8817,-19.90541],[-43.869,-19.92428],[-43.87067,-19.92783],[-43.8753,-19.93203],[-43.89154,-19.94676],[-43.9096,-19.95968],[-43.91607,-19.96359],[-43.9394,-19.97445],[-43.96535,-20.00432],[-43.97497,-20.00844],[-43.99213,-20.02881],[-44.0018,-20.05692],[-44.01222,-20.0593],[-44.01711,-20.05339],[-44.00989,-20.04158],[-44.02272,-20.03051],[-44.03592,-20.01978],[-44.04826,-19.9979],[-44.0538,-19.99552],[-44.05613,-19.98104],[-44.06197,-19.97431],[-44.04525,-19.9732],[-44.03408,-19.98279],[-44.03033,-19.97603],[-44.0124,-19.96768],[-44.01356,-19.95563],[-44.00537,-19.95453],[-44.00859,-19.9528],[-44.00844,-19.95053],[-44.01011,-19.94836],[-44.02367,-19.94291],[-44.02672,-19.93694],[-44.02198,-19.92453],[-44.02638,-19.91765],[-44.02886,-19.91495],[-44.02458,-19.90821],[-44.02631,-19.89842],[-44.01497,-19.88999],[-44.01292,-19.88059],[-44.02034,-19.867],[-44.01836,-19.85961],[-44.01339,-19.86001],[-44.01287,-19.85429],[-44.00873,-19.85368],[-44.01981,-19.8396],[-44.01683,-19.83118],[-44.01276,-19.82957],[-44.01358,-19.82582],[-44.00975,-19.82554],[-44.00534,-19.82091],[-44.00756,-19.81302],[-44.00191,-19.80185],[-43.99189,-19.79523],[-43.99011,-19.78539],[-43.97578,-19.78119],[-43.96525,-19.79121],[-43.96578,-19.78485],[-43.95911,-19.778],[-43.94832,-19.77677],[-43.94578,-19.77679]]]}},{"type":"Feature","properties":{"id":"3106705","name":"Betim"},"geometry":{"type":"Polygon","coordinates":[[[-44.20411,-19.83328],[-44.19308,-19.84074],[-44.1865,-19.83319],[-44.18214,-19.83116],[-44.17227,-19.83566],[-44.16731,-19.8467],[-44.16198,-19.84117],[-44.15211,-19.85204],[-44.14943,-19.85541],[-44.15006,-19.8589],[-44.15341,-19.87006],[-44.15438,-19.88038],[-44.15781,-19.88991],[-44.15634,-19.91071],[-44.15122,-19.91871],[-44.14122,-19.92515],[-44.13911,-19.92306],[-44.13776,-19.92543],[-44.13622,-19.92693],[-44.12692,-19.92714],[-44.12317,-19.93385],[-44.11778,-19.93584],[-44.10996,-19.93415],[-44.10705,-19.92711],[-44.09688,-19.92941],[-44.08284,-19.93574],[-44.07612,-19.94299],[-44.07265,-19.9474],[-44.06855,-19.94724],[-44.06645,-19.95327],[-44.06959,-19.9589],[-44.07588,-19.96725],[-44.08111,-19.9663],[-44.08561,-19.98059],[-44.0928,-19.98074],[-44.09852,-19.98689],[-44.10214,-19.98537],[-44.10786,-19.98546],[-44.111,-19.99084],[-44.11048,-20.00133],[-44.11598,-20.00236],[-44.13053,-20.0136],[-44.12644,-20.01624],[-44.12206,-20.01383],[-44.11694,-20.02367],[-44.12406,-20.02203],[-44.12653,-20.03012],[-44.13739,-20.03081],[-44.1435,-20.01834],[-44.15108,-20.01819],[-44.15228,-20.03008],[-44.15788,-20.02967],[-44.16239,-20.02449],[-44.16876,-20.02936],[-44.17855,-20.0306],[-44.18009,-20.03639],[-44.1745,-20.03782],[-44.18169,-20.04609],[-44.18335,-20.04811],[-44.18931,-20.04549],[-44.19622,-20.05093],[-44.20253,-20.04326],[-44.20602,-20.04325],[-44.21728,-20.04813],[-44.21525,-20.04155],[-44.22666,-20.03682],[-44.23471,-20.03771],[-44.23717,-20.04879],[-44.24125,-20.04962],[-44.24486,-20.04581],[-44.24505,-20.04548],[-44.24745,-20.04132],[-44.25359,-20.04482],[-44.25648,-20.03719],[-44.26199,-20.03377],[-44.2607,-20.02813],[-44.25415,-20.02482],[-44.25719,-20.01932],[-44.25211,-20.01598],[-44.25903,-20.00294],[-44.26589,-20.00034],[-44.27023,-20.00431],[-44.27227,-19.99097],[-44.27525,-19.98246],[-44.27172,-19.97872],[-44.27675,-19.97278],[-44.27953,-19.9667],[-44.28364,-19.96],[-44.29297,-19.96216],[-44.29719,-19.95321],[-44.30449,-19.94853],[-44.30849,-19.94523],[-44.31292,-19.94411],[-44.31534,-19.93794],[-44.30422,-19.93046],[-44.31744,-19.91739],[-44.31594,-19.90593],[-44.31222,-19.90562],[-44.29972,-19.90971],[-44.29406,-19.89903],[-44.29544,-19.89337],[-44.28154,-19.88905],[-44.27898,-19.88456],[-44.27178,-19.88605],[-44.26686,-19.879],[-44.25343,-19.88292],[-44.23636,-19.87736],[-44.23073,-19.86642],[-44.23255,-19.85562],[-44.22392,-19.85357],[-44.2219,-19.85072],[-44.2253,-19.838],[-44.21593,-19.83156],[-44.20411,-19.83328]]]}},{"type":"Feature","properties":{"id":"3109006","name":"Brumadinho"},"geometry":{"type":"Polygon","coordinates":[[[-44.01711,-20.05339],[-44.01222,-20.0593],[-44.0018,-20.05692],[-43.99169,-20.06314],[-43.99492,-20.07689],[-43.99349,-20.07827],[-43.98401,-20.08954],[-43.97917,-20.12885],[-43.97606,-20.1334],[-43.9718,-20.13904],[-43.97642,-20.14688],[-43.97402,-20.17248],[-43.9727,-20.17731],[-43.97969,-20.18622],[-43.97933,-20.19183],[-43.97639,-20.22221],[-43.9711,-20.23615],[-43.96507,-20.25944],[-43.97475,-20.26179],[-43.99711,-20.2544],[-43.99988,-20.25929],[-44.00447,-20.26009],[-44.00664,-20.26015],[-44.00586,-20.26578],[-44.01949,-20.27073],[-44.03544,-20.26406],[-44.03522,-20.27093],[-44.02782,-20.28207],[-44.03058,-20.29833],[-44.05255,-20.30895],[-44.05589,-20.31491],[-44.0708,-20.31493],[-44.07897,-20.3183],[-44.08196,-20.30813],[-44.08289,-20.30323],[-44.09167,-20.30328],[-44.09536,-20.29882],[-44.10456,-20.30675],[-44.09955,-20.31241],[-44.11283,-20.3108],[-44.11966,-20.31598],[-44.12177,-20.30723],[-44.11442,-20.30381],[-44.12524,-20.29714],[-44.114,-20.29038],[-44.11561,-20.2865],[-44.121,-20.28522],[-44.11712,-20.27618],[-44.12332,-20.27451],[-44.11714,-20.26695],[-44.1211,-20.26147],[-44.12142,-20.2588],[-44.11731,-20.25093],[-44.1243,-20.24653],[-44.13408,-20.24512],[-44.13927,-20.24897],[-44.14392,-20.24279],[-44.15228,-20.24337],[-44.14733,-20.22708],[-44.15706,-20.22915],[-44.16461,-20.21676],[-44.181,-20.22764],[-44.19268,-20.23662],[-44.20191,-20.23231],[-44.2109,-20.23683],[-44.21686,-20.23397],[-44.21817,-20.22906],[-44.23267,-20.23182],[-44.23228,-20.24769],[-44.24791,-20.2577],[-44.25961,-20.25049],[-44.2672,-20.25077],[-44.26828,-20.22594],[-44.27503,-20.22398],[-44.28044,-20.20317],[-44.27348,-20.19109],[-44.27777,-20.17083],[-44.28722,-20.17913],[-44.29942,-20.17723],[-44.30625,-20.18242],[-44.32277,-20.17648],[-44.32812,-20.17087],[-44.33255,-20.17314],[-44.33406,-20.16885],[-44.33847,-20.16468],[-44.35041,-20.15947],[-44.34589,-20.15634],[-44.34372,-20.14504],[-44.33759,-20.13792],[-44.33776,-20.11926],[-44.32043,-20.11434],[-44.30606,-20.11546],[-44.30511,-20.11573],[-44.29727,-20.11248],[-44.27759,-20.11096],[-44.25097,-20.1237],[-44.20985,-20.10052],[-44.19303,-20.09658],[-44.16961,-20.09701],[-44.1612,-20.09612],[-44.13422,-20.10244],[-44.12264,-20.09871],[-44.10559,-20.09823],[-44.09078,-20.09448],[-44.08292,-20.08892],[-44.06347,-20.07893],[-44.04125,-20.06242],[-44.0316,-20.06089],[-44.01922,-20.05481],[-44.01711,-20.05339]]]}},{"type":"Feature","properties":{"id":"3110004","name":"Caeté"},"geometry":{"type":"Polygon","coordinates":[[[-43.59475,-19.7269],[-43.60403,-19.73865],[-43.59936,-19.74768],[-43.60389,-19.75562],[-43.59967,-19.7616],[-43.59398,-19.75073],[-43.58155,-19.74924],[-43.579,-19.74605],[-43.57592,-19.73999],[-43.5778,-19.73341],[-43.56825,-19.73076],[-43.56245,-19.73559],[-43.5636,-19.73905],[-43.53878,-19.75433],[-43.53758,-19.76112],[-43.53417,-19.77291],[-43.54059,-19.78399],[-43.53061,-19.80311],[-43.52983,-19.82009],[-43.52406,-19.83191],[-43.52763,-19.83902],[-43.52666,-19.85641],[-43.53031,-19.85883],[-43.52303,-19.86375],[-43.52658,-19.87294],[-43.52281,-19.88315],[-43.52802,-19.89047],[-43.52441,-19.89451],[-43.51847,-19.91181],[-43.52862,-19.92573],[-43.54849,-19.9251],[-43.55225,-19.92921],[-43.55647,-19.92534],[-43.56161,-19.93069],[-43.57989,-19.92267],[-43.58656,-19.92647],[-43.58345,-19.93056],[-43.596,-19.93565],[-43.60076,-19.94983],[-43.61638,-19.95088],[-43.62856,-19.95525],[-43.638,-19.96585],[-43.663,-19.9952],[-43.67182,-20.01835],[-43.69346,-20.0538],[-43.69557,-20.06147],[-43.69233,-20.07419],[-43.70032,-20.0771],[-43.71035,-20.07546],[-43.72723,-20.05733],[-43.73255,-20.03326],[-43.73241,-20.02501],[-43.72956,-20.02398],[-43.73189,-20.01577],[-43.72678,-20.01393],[-43.73281,-20.00929],[-43.73478,-20.00008],[-43.73797,-19.98566],[-43.7317,-19.96764],[-43.7228,-19.96694],[-43.71948,-19.95668],[-43.72962,-19.94241],[-43.73472,-19.91946],[-43.74669,-19.90707],[-43.74725,-19.90089],[-43.74866,-19.89732],[-43.73998,-19.89244],[-43.73708,-19.88866],[-43.7386,-19.8798],[-43.73428,-19.87706],[-43.72783,-19.87971],[-43.72323,-19.87786],[-43.71694,-19.88795],[-43.70761,-19.88685],[-43.71156,-19.87453],[-43.72303,-19.86062],[-43.71454,-19.8497],[-43.71329,-19.8395],[-43.71844,-19.8289],[-43.70066,-19.82161],[-43.69368,-19.82412],[-43.67634,-19.82269],[-43.67338,-19.82014],[-43.67477,-19.81365],[-43.68003,-19.81297],[-43.68131,-19.80816],[-43.69136,-19.79973],[-43.68793,-19.78694],[-43.68809,-19.78664],[-43.68859,-19.76703],[-43.69692,-19.75439],[-43.70581,-19.75355],[-43.70886,-19.74735],[-43.70667,-19.74213],[-43.71177,-19.73676],[-43.70289,-19.72704],[-43.69766,-19.73048],[-43.67606,-19.72369],[-43.6636,-19.73203],[-43.65529,-19.73249],[-43.65521,-19.7325],[-43.64902,-19.72328],[-43.63328,-19.71391],[-43.63647,-19.70093],[-43.62903,-19.69465],[-43.61366,-19.70441],[-43.60219,-19.70703],[-43.59853,-19.71452],[-43.59378,-19.71573],[-43.59475,-19.7269]]]}},{"type":"Feature","properties":{"id":"3112505","name":"Capim Branco"},"geometry":{"type":"Polygon","coordinates":[[[-44.18053,-19.52452],[-44.17142,-19.53642],[-44.16019,-19.53863],[-44.15072,-19.52971],[-44.14045,-19.5304],[-44.132,-19.52427],[-44.12186,-19.52781],[-44.1174,-19.5263],[-44.11483,-19.52558],[-44.1118,-19.53127],[-44.11511,-19.54561],[-44.11152,-19.5496],[-44.11075,-19.55036],[-44.10514,-19.55585],[-44.11175,-19.56102],[-44.10734,-19.56968],[-44.11925,-19.58747],[-44.12467,-19.58772],[-44.12506,-19.59696],[-44.12908,-19.59906],[-44.13511,-19.5968],[-44.14142,-19.60345],[-44.14887,-19.5987],[-44.15951,-19.60124],[-44.16481,-19.59753],[-44.16931,-19.60264],[-44.17167,-19.61187],[-44.1872,-19.61838],[-44.19794,-19.64215],[-44.19902,-19.63717],[-44.20137,-19.62265],[-44.21581,-19.6124],[-44.22267,-19.59983],[-44.21424,-19.59838],[-44.22162,-19.5795],[-44.21915,-19.57358],[-44.21378,-19.5534],[-44.21328,-19.54022],[-44.20809,-19.53676],[-44.20662,-19.5293],[-44.19936,-19.52637],[-44.19228,-19.52943],[-44.18053,-19.52452]]]}},{"type":"Feature","properties":{"id":"3117876","name":"Confins"},"geometry":{"type":"Polygon","coordinates":[[[-43.94119,-19.66307],[-43.9445,-19.67123],[-43.95514,-19.67123],[-43.96541,-19.66879],[-43.97128,-19.68061],[-43.97644,-19.67926],[-43.97706,-19.6853],[-43.98493,-19.68766],[-43.99206,-19.68414],[-43.99333,-19.67118],[-43.99917,-19.66798],[-43.99774,-19.66221],[-43.99848,-19.66049],[-44.00309,-19.65905],[-44.00433,-19.65445],[-44.00638,-19.64875],[-43.99597,-19.6398],[-43.9984,-19.63509],[-44.00308,-19.62725],[-43.99539,-19.62349],[-43.98746,-19.61751],[-43.9929,-19.61285],[-43.99296,-19.60293],[-43.98814,-19.59887],[-43.97135,-19.59828],[-43.95608,-19.60464],[-43.95317,-19.60986],[-43.95114,-19.6176],[-43.95878,-19.6302],[-43.959,-19.63891],[-43.94239,-19.65265],[-43.93916,-19.65903],[-43.93436,-19.66166],[-43.94119,-19.66307]]]}},{"type":"Feature","properties":{"id":"3118601","name":"Contagem"},"geometry":{"type":"Polygon","coordinates":[[[-44.13362,-19.79881],[-44.12631,-19.801],[-44.11865,-19.79894],[-44.11719,-19.80415],[-44.10261,-19.80767],[-44.10159,-19.81998],[-44.09567,-19.82402],[-44.08147,-19.83442],[-44.07623,-19.84336],[-44.07433,-19.83962],[-44.0707,-19.84096],[-44.0662,-19.84506],[-44.05781,-19.84481],[-44.04819,-19.83839],[-44.04581,-19.83267],[-44.03766,-19.83791],[-44.02887,-19.83506],[-44.02489,-19.82967],[-44.01683,-19.83118],[-44.01981,-19.8396],[-44.00873,-19.85368],[-44.01287,-19.85429],[-44.01339,-19.86001],[-44.01836,-19.85961],[-44.02034,-19.867],[-44.01292,-19.88059],[-44.01497,-19.88999],[-44.02631,-19.89842],[-44.02458,-19.90821],[-44.02886,-19.91495],[-44.02638,-19.91765],[-44.02198,-19.92453],[-44.02672,-19.93694],[-44.02367,-19.94291],[-44.01011,-19.94836],[-44.00844,-19.95053],[-44.00859,-19.9528],[-44.00537,-19.95453],[-44.01356,-19.95563],[-44.0124,-19.96768],[-44.03033,-19.97603],[-44.03408,-19.98279],[-44.04525,-19.9732],[-44.06197,-19.97431],[-44.07588,-19.96725],[-44.06959,-19.9589],[-44.06645,-19.95327],[-44.06855,-19.94724],[-44.07265,-19.9474],[-44.07612,-19.94299],[-44.08284,-19.93574],[-44.09688,-19.92941],[-44.10705,-19.92711],[-44.10996,-19.93415],[-44.11778,-19.93584],[-44.12317,-19.93385],[-44.12692,-19.92714],[-44.13622,-19.92693],[-44.13776,-19.92543],[-44.13911,-19.92306],[-44.14122,-19.92515],[-44.15122,-19.91871],[-44.15634,-19.91071],[-44.15781,-19.88991],[-44.15438,-19.88038],[-44.15341,-19.87006],[-44.15006,-19.8589],[-44.14943,-19.85541],[-44.15211,-19.85204],[-44.16198,-19.84117],[-44.16046,-19.8393],[-44.1544,-19.83973],[-44.15772,-19.82576],[-44.1447,-19.81996],[-44.14739,-19.81301],[-44.13436,-19.80249],[-44.13398,-19.79878],[-44.13362,-19.79881]]]}},{"type":"Feature","properties":{"id":"3124104","name":"Esmeraldas"},"geometry":{"type":"Polygon","coordinates":[[[-44.38178,-19.5776],[-44.37914,-19.58236],[-44.37487,-19.58113],[-44.371,-19.58415],[-44.36397,-19.5813],[-44.35811,-19.58426],[-44.35259,-19.5793],[-44.35223,-19.5867],[-44.33914,-19.58531],[-44.3367,-19.58067],[-44.32853,-19.57897],[-44.32368,-19.58997],[-44.31539,-19.59191],[-44.31277,-19.59146],[-44.30444,-19.58452],[-44.29786,-19.58567],[-44.29375,-19.5824],[-44.27171,-19.58523],[-44.26428,-19.58332],[-44.25861,-19.57718],[-44.25205,-19.57939],[-44.24595,-19.57673],[-44.24287,-19.57747],[-44.23859,-19.58815],[-44.23069,-19.59224],[-44.22909,-19.59277],[-44.2268,-19.59312],[-44.22533,-19.59634],[-44.22267,-19.59983],[-44.21581,-19.6124],[-44.20137,-19.62265],[-44.19902,-19.63717],[-44.19794,-19.64215],[-44.19809,-19.65952],[-44.19476,-19.66238],[-44.19482,-19.67159],[-44.18453,-19.68104],[-44.16214,-19.67881],[-44.15892,-19.67368],[-44.15595,-19.68423],[-44.14937,-19.685],[-44.14131,-19.70471],[-44.13315,-19.70876],[-44.13747,-19.71111],[-44.14295,-19.72594],[-44.14225,-19.73489],[-44.15745,-19.74128],[-44.1642,-19.75685],[-44.16124,-19.76299],[-44.15526,-19.76529],[-44.14225,-19.77941],[-44.13398,-19.79878],[-44.13436,-19.80249],[-44.14739,-19.81301],[-44.1447,-19.81996],[-44.15772,-19.82576],[-44.1544,-19.83973],[-44.16046,-19.8393],[-44.16198,-19.84117],[-44.16731,-19.8467],[-44.17227,-19.83566],[-44.18214,-19.83116],[-44.1865,-19.83319],[-44.19308,-19.84074],[-44.20411,-19.83328],[-44.21593,-19.83156],[-44.2253,-19.838],[-44.2219,-19.85072],[-44.22392,-19.85357],[-44.23255,-19.85562],[-44.23073,-19.86642],[-44.23636,-19.87736],[-44.25343,-19.88292],[-44.26686,-19.879],[-44.27178,-19.88605],[-44.27898,-19.88456],[-44.28154,-19.88905],[-44.29544,-19.89337],[-44.29406,-19.89903],[-44.29972,-19.90971],[-44.31222,-19.90562],[-44.31594,-19.90593],[-44.31744,-19.91739],[-44.30422,-19.93046],[-44.31534,-19.93794],[-44.32619,-19.94556],[-44.33564,-19.94125],[-44.34013,-19.93269],[-44.34405,-19.91978],[-44.34534,-19.917],[-44.34922,-19.91946],[-44.35181,-19.91724],[-44.34781,-19.91216],[-44.35473,-19.90503],[-44.35386,-19.90118],[-44.34283,-19.89753],[-44.34597,-19.88647],[-44.33906,-19.87569],[-44.33992,-19.86974],[-44.34306,-19.8693],[-44.34603,-19.87548],[-44.35458,-19.87263],[-44.35764,-19.87854],[-44.36312,-19.87633],[-44.36659,-19.8834],[-44.3695,-19.88325],[-44.37573,-19.86666],[-44.37276,-19.86078],[-44.37908,-19.86007],[-44.38307,-19.84562],[-44.38776,-19.83775],[-44.39479,-19.83508],[-44.40348,-19.82589],[-44.40212,-19.81805],[-44.40786,-19.81492],[-44.417,-19.8072],[-44.42148,-19.80723],[-44.41511,-19.80266],[-44.41345,-19.79815],[-44.41639,-19.7938],[-44.41137,-19.78902],[-44.41597,-19.78307],[-44.42517,-19.78445],[-44.42362,-19.77912],[-44.43098,-19.77584],[-44.42634,-19.76271],[-44.43122,-19.76631],[-44.44333,-19.76518],[-44.444,-19.75296],[-44.4337,-19.74508],[-44.44045,-19.73355],[-44.45226,-19.73413],[-44.4593,-19.72707],[-44.46673,-19.72501],[-44.46959,-19.71537],[-44.47398,-19.71269],[-44.47189,-19.70747],[-44.49339,-19.71282],[-44.49916,-19.70574],[-44.48986,-19.7017],[-44.49267,-19.69738],[-44.49898,-19.69038],[-44.49955,-19.68366],[-44.48106,-19.67583],[-44.47745,-19.66736],[-44.48426,-19.6664],[-44.49232,-19.65843],[-44.49817,-19.65902],[-44.50592,-19.66666],[-44.51078,-19.66319],[-44.50648,-19.65315],[-44.50819,-19.65043],[-44.50301,-19.64886],[-44.49722,-19.64042],[-44.48961,-19.63821],[-44.48406,-19.64109],[-44.4824,-19.63845],[-44.47083,-19.63745],[-44.45867,-19.64347],[-44.45006,-19.63149],[-44.44439,-19.63183],[-44.43665,-19.62952],[-44.42811,-19.63885],[-44.40656,-19.63641],[-44.41011,-19.62865],[-44.40754,-19.62309],[-44.41242,-19.60113],[-44.40089,-19.58915],[-44.39475,-19.58765],[-44.39111,-19.5793],[-44.38178,-19.5776]]]}},{"type":"Feature","properties":{"id":"3126000","name":"Florestal"},"geometry":{"type":"Polygon","coordinates":[[[-44.42634,-19.76271],[-44.43098,-19.77584],[-44.42362,-19.77912],[-44.42517,-19.78445],[-44.41597,-19.78307],[-44.41137,-19.78902],[-44.41639,-19.7938],[-44.41345,-19.79815],[-44.41511,-19.80266],[-44.42148,-19.80723],[-44.417,-19.8072],[-44.40786,-19.81492],[-44.40212,-19.81805],[-44.40348,-19.82589],[-44.39479,-19.83508],[-44.38776,-19.83775],[-44.38307,-19.84562],[-44.37908,-19.86007],[-44.37276,-19.86078],[-44.37573,-19.86666],[-44.3695,-19.88325],[-44.36659,-19.8834],[-44.36312,-19.87633],[-44.35764,-19.87854],[-44.35458,-19.87263],[-44.34603,-19.87548],[-44.34306,-19.8693],[-44.33992,-19.86974],[-44.33906,-19.87569],[-44.34597,-19.88647],[-44.34283,-19.89753],[-44.35386,-19.90118],[-44.35473,-19.90503],[-44.35836,-19.91091],[-44.37103,-19.9117],[-44.38324,-19.91901],[-44.3862,-19.92437],[-44.39767,-19.91677],[-44.4048,-19.92152],[-44.41031,-19.92301],[-44.41542,-19.91885],[-44.42717,-19.92084],[-44.43509,-19.9239],[-44.43867,-19.93155],[-44.45727,-19.92364],[-44.45731,-19.91739],[-44.47933,-19.91597],[-44.4819,-19.91977],[-44.49983,-19.92994],[-44.50847,-19.92763],[-44.50854,-19.93298],[-44.51804,-19.94075],[-44.52464,-19.95603],[-44.52723,-19.95295],[-44.52705,-19.94291],[-44.52092,-19.92982],[-44.52492,-19.91371],[-44.52956,-19.9123],[-44.54175,-19.89763],[-44.5363,-19.89713],[-44.51781,-19.89628],[-44.51753,-19.88164],[-44.52056,-19.87672],[-44.51525,-19.87626],[-44.51569,-19.86079],[-44.50908,-19.85763],[-44.50676,-19.8486],[-44.48631,-19.8414],[-44.48533,-19.83763],[-44.4812,-19.83184],[-44.4845,-19.81576],[-44.47889,-19.80674],[-44.46412,-19.81057],[-44.45936,-19.79547],[-44.44689,-19.78902],[-44.44833,-19.78387],[-44.44247,-19.78203],[-44.44379,-19.77383],[-44.43939,-19.76842],[-44.44333,-19.76518],[-44.43122,-19.76631],[-44.42634,-19.76271]]]}},{"type":"Feature","properties":{"id":"3129806","name":"Ibirité"},"geometry":{"type":"Polygon","coordinates":[[[-44.06197,-19.97431],[-44.05613,-19.98104],[-44.0538,-19.99552],[-44.04826,-19.9979],[-44.03592,-20.01978],[-44.02272,-20.03051],[-44.00989,-20.04158],[-44.01711,-20.05339],[-44.01922,-20.05481],[-44.0316,-20.06089],[-44.04125,-20.06242],[-44.06347,-20.07893],[-44.06708,-20.07228],[-44.07475,-20.06835],[-44.0737,-20.06475],[-44.082,-20.06108],[-44.08873,-20.05132],[-44.09247,-20.04188],[-44.08926,-20.03825],[-44.09354,-20.03512],[-44.09304,-20.02856],[-44.11694,-20.02367],[-44.12206,-20.01383],[-44.12644,-20.01624],[-44.13053,-20.0136],[-44.11598,-20.00236],[-44.11048,-20.00133],[-44.111,-19.99084],[-44.10786,-19.98546],[-44.10214,-19.98537],[-44.09852,-19.98689],[-44.0928,-19.98074],[-44.08561,-19.98059],[-44.08111,-19.9663],[-44.07588,-19.96725],[-44.06197,-19.97431]]]}},{"type":"Feature","properties":{"id":"3130101","name":"Igarapé"},"geometry":{"type":"Polygon","coordinates":[[[-44.27983,-19.99248],[-44.27523,-20.00284],[-44.27023,-20.00431],[-44.27722,-20.03077],[-44.28305,-20.03539],[-44.28905,-20.03508],[-44.28297,-20.04626],[-44.29161,-20.05891],[-44.28372,-20.06437],[-44.2819,-20.07586],[-44.2857,-20.08434],[-44.28367,-20.09737],[-44.27609,-20.10321],[-44.27759,-20.11096],[-44.29727,-20.11248],[-44.30511,-20.11573],[-44.30606,-20.11546],[-44.32043,-20.11434],[-44.33776,-20.11926],[-44.3522,-20.12104],[-44.35653,-20.11888],[-44.36161,-20.101],[-44.37448,-20.07737],[-44.37548,-20.07325],[-44.37581,-20.07192],[-44.36864,-20.06525],[-44.36908,-20.0589],[-44.36797,-20.04779],[-44.36583,-20.04166],[-44.35162,-20.02908],[-44.34861,-20.01977],[-44.34306,-20.0165],[-44.34361,-20.00508],[-44.34178,-20.00079],[-44.33072,-19.99542],[-44.32404,-19.99627],[-44.3213,-19.99562],[-44.31742,-19.99936],[-44.31208,-19.99709],[-44.30261,-20.00128],[-44.29239,-19.99535],[-44.27983,-19.99248]]]}},{"type":"Feature","properties":{"id":"3132206","name":"Itaguara"},"geometry":{"type":"Polygon","coordinates":[[[-44.50553,-20.27745],[-44.4986,-20.28617],[-44.48283,-20.29269],[-44.4815,-20.28513],[-44.46222,-20.29051],[-44.44611,-20.28469],[-44.43554,-20.29176],[-44.43694,-20.29876],[-44.44741,-20.30749],[-44.44445,-20.31317],[-44.44589,-20.32334],[-44.43814,-20.32604],[-44.44108,-20.33508],[-44.43736,-20.34656],[-44.43783,-20.35098],[-44.44359,-20.35468],[-44.44012,-20.36023],[-44.43461,-20.36017],[-44.42925,-20.3655],[-44.42472,-20.37925],[-44.41519,-20.37653],[-44.4122,-20.38179],[-44.41661,-20.38635],[-44.42425,-20.39509],[-44.42836,-20.4091],[-44.40698,-20.42673],[-44.41797,-20.44106],[-44.42361,-20.43857],[-44.44686,-20.44551],[-44.462,-20.44107],[-44.46483,-20.44688],[-44.47105,-20.44645],[-44.47839,-20.45309],[-44.48695,-20.44911],[-44.49,-20.45885],[-44.497,-20.45814],[-44.50731,-20.46568],[-44.51422,-20.46646],[-44.51629,-20.4711],[-44.5163,-20.4712],[-44.53373,-20.48626],[-44.53975,-20.48607],[-44.543,-20.48243],[-44.55564,-20.47425],[-44.56125,-20.47681],[-44.57522,-20.46639],[-44.57797,-20.46804],[-44.57808,-20.46524],[-44.58255,-20.46546],[-44.59411,-20.45706],[-44.59455,-20.4483],[-44.59936,-20.44702],[-44.59836,-20.4433],[-44.60328,-20.43635],[-44.61673,-20.42729],[-44.61306,-20.42002],[-44.61642,-20.4137],[-44.62829,-20.40482],[-44.63473,-20.39404],[-44.6294,-20.38659],[-44.63394,-20.37855],[-44.64211,-20.37852],[-44.63942,-20.37348],[-44.64253,-20.36873],[-44.64817,-20.36925],[-44.65469,-20.36418],[-44.65067,-20.35873],[-44.65611,-20.34482],[-44.65083,-20.34094],[-44.65896,-20.33796],[-44.65908,-20.33782],[-44.65153,-20.32105],[-44.64203,-20.32506],[-44.63327,-20.32332],[-44.62881,-20.31517],[-44.62872,-20.3148],[-44.63071,-20.31054],[-44.62277,-20.29897],[-44.61025,-20.29709],[-44.60783,-20.30153],[-44.59672,-20.29933],[-44.59159,-20.29572],[-44.59245,-20.28782],[-44.58247,-20.2797],[-44.56568,-20.27924],[-44.56219,-20.28568],[-44.54719,-20.28407],[-44.5415,-20.27426],[-44.53203,-20.27356],[-44.53092,-20.259],[-44.52075,-20.25544],[-44.51167,-20.25923],[-44.50589,-20.26488],[-44.50553,-20.27745]]]}},{"type":"Feature","properties":{"id":"3133709","name":"Itatiaiuçu"},"geometry":{"type":"Polygon","coordinates":[[[-44.33776,-20.11926],[-44.33759,-20.13792],[-44.34372,-20.14504],[-44.34589,-20.15634],[-44.35041,-20.15947],[-44.3504,-20.16005],[-44.36427,-20.17556],[-44.36209,-20.18461],[-44.35306,-20.18877],[-44.35125,-20.19376],[-44.3605,-20.21338],[-44.35781,-20.21909],[-44.36634,-20.22695],[-44.36303,-20.23641],[-44.35926,-20.23814],[-44.35963,-20.24403],[-44.36253,-20.24827],[-44.37084,-20.24632],[-44.39105,-20.25772],[-44.40461,-20.25266],[-44.41995,-20.25347],[-44.42656,-20.2752],[-44.42693,-20.27647],[-44.42697,-20.28392],[-44.43472,-20.28466],[-44.43554,-20.29176],[-44.44611,-20.28469],[-44.46222,-20.29051],[-44.4815,-20.28513],[-44.48283,-20.29269],[-44.4986,-20.28617],[-44.50553,-20.27745],[-44.50589,-20.26488],[-44.51167,-20.25923],[-44.52075,-20.25544],[-44.53092,-20.259],[-44.53203,-20.27356],[-44.5415,-20.27426],[-44.54719,-20.28407],[-44.56219,-20.28568],[-44.56568,-20.27924],[-44.56541,-20.27454],[-44.56172,-20.27278],[-44.56905,-20.26941],[-44.5744,-20.25094],[-44.57389,-20.24544],[-44.56759,-20.23873],[-44.57322,-20.229],[-44.57016,-20.22455],[-44.56559,-20.21768],[-44.55492,-20.21227],[-44.54923,-20.20184],[-44.54436,-20.18732],[-44.54776,-20.18021],[-44.54486,-20.16723],[-44.53575,-20.16997],[-44.53092,-20.16436],[-44.51722,-20.16582],[-44.51633,-20.16575],[-44.50759,-20.16974],[-44.49239,-20.15253],[-44.47467,-20.16875],[-44.4452,-20.14743],[-44.42119,-20.13626],[-44.42112,-20.1362],[-44.41982,-20.13518],[-44.41053,-20.13038],[-44.37828,-20.12169],[-44.36769,-20.12357],[-44.3522,-20.12104],[-44.33776,-20.11926]]]}},{"type":"Feature","properties":{"id":"3134608","name":"Jaboticatubas"},"geometry":{"type":"Polygon","coordinates":[[[-43.74356,-19.23737],[-43.74389,-19.24449],[-43.74087,-19.24328],[-43.73397,-19.25501],[-43.73514,-19.25748],[-43.73777,-19.25382],[-43.73967,-19.25867],[-43.73406,-19.26333],[-43.7367,-19.26806],[-43.73266,-19.2808],[-43.72566,-19.28196],[-43.72086,-19.27025],[-43.71134,-19.2741],[-43.7067,-19.267],[-43.70359,-19.27193],[-43.69883,-19.27181],[-43.69403,-19.29011],[-43.69142,-19.28898],[-43.69206,-19.27668],[-43.68892,-19.27412],[-43.68886,-19.28182],[-43.67942,-19.28256],[-43.67306,-19.29117],[-43.67592,-19.30625],[-43.68267,-19.30397],[-43.68403,-19.31114],[-43.67097,-19.31322],[-43.67333,-19.32403],[-43.67047,-19.33071],[-43.66389,-19.33183],[-43.66311,-19.32913],[-43.6568,-19.33617],[-43.65331,-19.33311],[-43.64856,-19.33635],[-43.6502,-19.34244],[-43.64287,-19.344],[-43.6393,-19.34771],[-43.62453,-19.33998],[-43.61866,-19.34541],[-43.61799,-19.34554],[-43.60728,-19.34344],[-43.60725,-19.34733],[-43.60483,-19.345],[-43.59489,-19.34764],[-43.54753,-19.33493],[-43.51881,-19.33088],[-43.52147,-19.34037],[-43.519,-19.3492],[-43.50194,-19.36379],[-43.49745,-19.36369],[-43.49656,-19.35722],[-43.4937,-19.35729],[-43.49231,-19.36586],[-43.48781,-19.37021],[-43.48945,-19.37559],[-43.49458,-19.38761],[-43.48353,-19.39706],[-43.48051,-19.4011],[-43.48566,-19.40536],[-43.47856,-19.41432],[-43.48183,-19.41869],[-43.48278,-19.41972],[-43.48194,-19.42814],[-43.48564,-19.43303],[-43.48153,-19.44042],[-43.48053,-19.45437],[-43.486,-19.45372],[-43.48872,-19.45812],[-43.49273,-19.4568],[-43.49783,-19.47788],[-43.51259,-19.50056],[-43.51375,-19.50744],[-43.52206,-19.50893],[-43.5275,-19.52316],[-43.53719,-19.52874],[-43.5435,-19.54189],[-43.54875,-19.53038],[-43.54711,-19.51015],[-43.55602,-19.50285],[-43.55461,-19.49633],[-43.5659,-19.48416],[-43.57084,-19.48839],[-43.58384,-19.49379],[-43.58544,-19.50621],[-43.58269,-19.51376],[-43.59122,-19.52144],[-43.59939,-19.52389],[-43.60489,-19.53231],[-43.6175,-19.53531],[-43.62095,-19.54193],[-43.63933,-19.55249],[-43.63741,-19.56105],[-43.6468,-19.56026],[-43.65436,-19.56513],[-43.66175,-19.56116],[-43.66817,-19.54794],[-43.67738,-19.55807],[-43.68616,-19.55124],[-43.69156,-19.55908],[-43.70064,-19.56399],[-43.70853,-19.55322],[-43.71828,-19.54932],[-43.72844,-19.55642],[-43.73303,-19.55208],[-43.74186,-19.55645],[-43.75383,-19.55459],[-43.76539,-19.56384],[-43.76962,-19.57935],[-43.77388,-19.57953],[-43.77646,-19.584],[-43.77619,-19.59451],[-43.78497,-19.60527],[-43.78128,-19.60791],[-43.78227,-19.61113],[-43.78483,-19.6132],[-43.78686,-19.60914],[-43.79867,-19.6128],[-43.80247,-19.60994],[-43.81409,-19.61238],[-43.81036,-19.60094],[-43.81353,-19.59652],[-43.82352,-19.60338],[-43.82414,-19.59451],[-43.83864,-19.59939],[-43.84225,-19.57821],[-43.8495,-19.57513],[-43.85341,-19.57904],[-43.85709,-19.57828],[-43.85981,-19.57366],[-43.86625,-19.57316],[-43.86464,-19.56121],[-43.86755,-19.5587],[-43.87078,-19.56994],[-43.87951,-19.57598],[-43.8788,-19.5806],[-43.88519,-19.58074],[-43.8911,-19.57362],[-43.89689,-19.55719],[-43.91043,-19.55997],[-43.91111,-19.5595],[-43.91108,-19.55858],[-43.90739,-19.55498],[-43.89164,-19.55306],[-43.89368,-19.54102],[-43.90708,-19.54294],[-43.91645,-19.53871],[-43.92195,-19.53586],[-43.92686,-19.53053],[-43.923,-19.5192],[-43.91573,-19.51466],[-43.92884,-19.50416],[-43.93197,-19.49468],[-43.94003,-19.49553],[-43.94203,-19.48496],[-43.94837,-19.49095],[-43.95089,-19.48741],[-43.9457,-19.48311],[-43.94667,-19.48071],[-43.95425,-19.48106],[-43.9555,-19.47539],[-43.952,-19.47719],[-43.94603,-19.47104],[-43.93842,-19.4733],[-43.93628,-19.46751],[-43.94048,-19.46296],[-43.95405,-19.46735],[-43.95992,-19.46068],[-43.95651,-19.4568],[-43.95308,-19.45952],[-43.9472,-19.45731],[-43.93351,-19.44836],[-43.9294,-19.44467],[-43.93065,-19.44188],[-43.94342,-19.44568],[-43.9465,-19.43948],[-43.9466,-19.43943],[-43.95603,-19.44523],[-43.95853,-19.44351],[-43.95717,-19.43348],[-43.95425,-19.43547],[-43.94681,-19.43191],[-43.93874,-19.43375],[-43.92884,-19.4296],[-43.9288,-19.42477],[-43.92156,-19.42206],[-43.92173,-19.41003],[-43.91214,-19.40599],[-43.90906,-19.39904],[-43.89269,-19.38245],[-43.88614,-19.38311],[-43.88311,-19.38713],[-43.87706,-19.38361],[-43.86075,-19.39145],[-43.84316,-19.38439],[-43.8355,-19.38879],[-43.82247,-19.38817],[-43.819,-19.38637],[-43.81875,-19.3733],[-43.80436,-19.37015],[-43.79406,-19.35239],[-43.79562,-19.3411],[-43.81028,-19.33427],[-43.80664,-19.3313],[-43.80978,-19.31681],[-43.80493,-19.30336],[-43.79636,-19.29061],[-43.79347,-19.29293],[-43.7852,-19.29061],[-43.77175,-19.27885],[-43.76619,-19.25068],[-43.75897,-19.25091],[-43.75305,-19.23721],[-43.74906,-19.2361],[-43.74325,-19.23532],[-43.74138,-19.23107],[-43.73783,-19.23609],[-43.74356,-19.23737]]]}},{"type":"Feature","properties":{"id":"3136603","name":"Nova União"},"geometry":{"type":"Polygon","coordinates":[[[-43.54875,-19.53038],[-43.5435,-19.54189],[-43.53122,-19.5509],[-43.52783,-19.55917],[-43.53019,-19.56775],[-43.53678,-19.56623],[-43.54081,-19.57156],[-43.53987,-19.59074],[-43.5425,-19.60076],[-43.53929,-19.61623],[-43.54255,-19.62403],[-43.54942,-19.66157],[-43.54445,-19.67781],[-43.54489,-19.68899],[-43.53639,-19.69153],[-43.53872,-19.69837],[-43.53425,-19.72144],[-43.52761,-19.7293],[-43.53578,-19.73341],[-43.53414,-19.74345],[-43.53881,-19.75342],[-43.53878,-19.75433],[-43.5636,-19.73905],[-43.56245,-19.73559],[-43.56825,-19.73076],[-43.5778,-19.73341],[-43.57592,-19.73999],[-43.579,-19.74605],[-43.58155,-19.74924],[-43.59398,-19.75073],[-43.59967,-19.7616],[-43.60389,-19.75562],[-43.59936,-19.74768],[-43.60403,-19.73865],[-43.59475,-19.7269],[-43.59378,-19.71573],[-43.59853,-19.71452],[-43.60219,-19.70703],[-43.61366,-19.70441],[-43.62903,-19.69465],[-43.63395,-19.6873],[-43.62991,-19.68546],[-43.6315,-19.67825],[-43.62665,-19.67691],[-43.61697,-19.67434],[-43.62603,-19.66497],[-43.61689,-19.65862],[-43.61119,-19.65083],[-43.61394,-19.64356],[-43.61177,-19.63988],[-43.5997,-19.62741],[-43.59639,-19.60574],[-43.59628,-19.6032],[-43.59344,-19.5769],[-43.58632,-19.55224],[-43.57567,-19.54569],[-43.57678,-19.5377],[-43.58089,-19.5385],[-43.58254,-19.53294],[-43.58269,-19.51376],[-43.58544,-19.50621],[-43.58384,-19.49379],[-43.57084,-19.48839],[-43.5659,-19.48416],[-43.55461,-19.49633],[-43.55602,-19.50285],[-43.54711,-19.51015],[-43.54875,-19.53038]]]}},{"type":"Feature","properties":{"id":"3136652","name":"Juatuba"},"geometry":{"type":"Polygon","coordinates":[[[-44.35181,-19.91724],[-44.34922,-19.91946],[-44.34534,-19.917],[-44.34405,-19.91978],[-44.34013,-19.93269],[-44.33564,-19.94125],[-44.32619,-19.94556],[-44.31534,-19.93794],[-44.31292,-19.94411],[-44.30849,-19.94523],[-44.30449,-19.94853],[-44.29719,-19.95321],[-44.29297,-19.96216],[-44.28364,-19.96],[-44.27953,-19.9667],[-44.27675,-19.97278],[-44.27172,-19.97872],[-44.27525,-19.98246],[-44.27227,-19.99097],[-44.27023,-20.00431],[-44.27523,-20.00284],[-44.27983,-19.99248],[-44.29239,-19.99535],[-44.30261,-20.00128],[-44.31208,-19.99709],[-44.31742,-19.99936],[-44.3213,-19.99562],[-44.32404,-19.99627],[-44.33072,-19.99542],[-44.34178,-20.00079],[-44.34361,-20.00508],[-44.34714,-20.00521],[-44.34509,-19.99321],[-44.34978,-19.99172],[-44.34386,-19.9902],[-44.34547,-19.98563],[-44.34303,-19.98516],[-44.34634,-19.98078],[-44.35986,-19.97724],[-44.36063,-19.97715],[-44.36805,-19.98325],[-44.37525,-19.97916],[-44.38062,-19.97071],[-44.38531,-19.97049],[-44.39175,-19.97866],[-44.40862,-19.96091],[-44.41531,-19.96109],[-44.42986,-19.9537],[-44.43821,-19.93553],[-44.43867,-19.93155],[-44.43509,-19.9239],[-44.42717,-19.92084],[-44.41542,-19.91885],[-44.41031,-19.92301],[-44.4048,-19.92152],[-44.39767,-19.91677],[-44.3862,-19.92437],[-44.38324,-19.91901],[-44.37103,-19.9117],[-44.35836,-19.91091],[-44.35473,-19.90503],[-44.34781,-19.91216],[-44.35181,-19.91724]]]}},{"type":"Feature","properties":{"id":"3137601","name":"Lagoa Santa"},"geometry":{"type":"Polygon","coordinates":[[[-43.94235,-19.5402],[-43.93352,-19.54364],[-43.92677,-19.53933],[-43.92195,-19.53586],[-43.91645,-19.53871],[-43.90708,-19.54294],[-43.89368,-19.54102],[-43.89164,-19.55306],[-43.90739,-19.55498],[-43.91108,-19.55858],[-43.91111,-19.5595],[-43.91043,-19.55997],[-43.89689,-19.55719],[-43.8911,-19.57362],[-43.88519,-19.58074],[-43.8788,-19.5806],[-43.87951,-19.57598],[-43.87078,-19.56994],[-43.86755,-19.5587],[-43.86464,-19.56121],[-43.86625,-19.57316],[-43.85981,-19.57366],[-43.85709,-19.57828],[-43.85341,-19.57904],[-43.8495,-19.57513],[-43.84225,-19.57821],[-43.83864,-19.59939],[-43.82414,-19.59451],[-43.82352,-19.60338],[-43.81353,-19.59652],[-43.81036,-19.60094],[-43.81409,-19.61238],[-43.80247,-19.60994],[-43.79867,-19.6128],[-43.79967,-19.62114],[-43.80434,-19.62562],[-43.81578,-19.61836],[-43.81444,-19.63297],[-43.81756,-19.64015],[-43.80936,-19.63948],[-43.81103,-19.65667],[-43.79537,-19.65828],[-43.79232,-19.66132],[-43.79922,-19.66863],[-43.80602,-19.66535],[-43.80567,-19.67073],[-43.79872,-19.67677],[-43.80406,-19.68518],[-43.80173,-19.68672],[-43.809,-19.68746],[-43.80881,-19.69628],[-43.81517,-19.70406],[-43.81403,-19.71476],[-43.81647,-19.71649],[-43.83178,-19.71241],[-43.83852,-19.7049],[-43.84758,-19.71564],[-43.87221,-19.70233],[-43.88147,-19.70002],[-43.88456,-19.69442],[-43.89249,-19.70065],[-43.8971,-19.69863],[-43.90172,-19.70083],[-43.91411,-19.69804],[-43.91392,-19.69371],[-43.90381,-19.69041],[-43.90231,-19.68409],[-43.906,-19.6805],[-43.91436,-19.68042],[-43.91992,-19.68205],[-43.92027,-19.68626],[-43.92595,-19.68488],[-43.93078,-19.6799],[-43.93732,-19.67993],[-43.9445,-19.67123],[-43.94119,-19.66307],[-43.93436,-19.66166],[-43.93916,-19.65903],[-43.94239,-19.65265],[-43.959,-19.63891],[-43.95878,-19.6302],[-43.95114,-19.6176],[-43.95317,-19.60986],[-43.95608,-19.60464],[-43.97135,-19.59828],[-43.97104,-19.59583],[-43.96994,-19.58701],[-43.96608,-19.58359],[-43.97377,-19.5742],[-43.96519,-19.57076],[-43.9652,-19.56217],[-43.96728,-19.55887],[-43.96345,-19.556],[-43.96491,-19.55346],[-43.96466,-19.5488],[-43.96003,-19.53965],[-43.95364,-19.53588],[-43.94795,-19.53553],[-43.94235,-19.5402]]]}},{"type":"Feature","properties":{"id":"3140159","name":"Mário Campos"},"geometry":{"type":"Polygon","coordinates":[[[-44.18931,-20.04549],[-44.18335,-20.04811],[-44.18169,-20.04609],[-44.16436,-20.05341],[-44.16012,-20.05142],[-44.15817,-20.05499],[-44.14847,-20.06071],[-44.1486,-20.07323],[-44.14398,-20.08768],[-44.12264,-20.09871],[-44.13422,-20.10244],[-44.1612,-20.09612],[-44.16961,-20.09701],[-44.19303,-20.09658],[-44.20985,-20.10052],[-44.20801,-20.07363],[-44.21385,-20.06588],[-44.20876,-20.06139],[-44.19778,-20.05738],[-44.19622,-20.05093],[-44.18931,-20.04549]]]}},{"type":"Feature","properties":{"id":"3140704","name":"Mateus Leme"},"geometry":{"type":"Polygon","coordinates":[[[-44.45727,-19.92364],[-44.43867,-19.93155],[-44.43821,-19.93553],[-44.42986,-19.9537],[-44.41531,-19.96109],[-44.40862,-19.96091],[-44.39175,-19.97866],[-44.38531,-19.97049],[-44.38062,-19.97071],[-44.37525,-19.97916],[-44.36805,-19.98325],[-44.36063,-19.97715],[-44.35986,-19.97724],[-44.34634,-19.98078],[-44.34303,-19.98516],[-44.34547,-19.98563],[-44.34386,-19.9902],[-44.34978,-19.99172],[-44.34509,-19.99321],[-44.34714,-20.00521],[-44.34361,-20.00508],[-44.34306,-20.0165],[-44.34861,-20.01977],[-44.35162,-20.02908],[-44.36583,-20.04166],[-44.36797,-20.04779],[-44.36908,-20.0589],[-44.36864,-20.06525],[-44.37581,-20.07192],[-44.37548,-20.07325],[-44.37448,-20.07737],[-44.36161,-20.101],[-44.35653,-20.11888],[-44.3522,-20.12104],[-44.36769,-20.12357],[-44.37828,-20.12169],[-44.41053,-20.13038],[-44.41982,-20.13518],[-44.42112,-20.1362],[-44.42119,-20.13626],[-44.4452,-20.14743],[-44.46125,-20.1226],[-44.46227,-20.11291],[-44.47595,-20.1042],[-44.47643,-20.08119],[-44.48089,-20.07806],[-44.48578,-20.08147],[-44.4875,-20.07533],[-44.4968,-20.07763],[-44.50511,-20.06683],[-44.50572,-20.06182],[-44.49829,-20.05673],[-44.50597,-20.04047],[-44.50725,-20.03287],[-44.50263,-20.03153],[-44.49639,-20.02818],[-44.49897,-20.02117],[-44.49883,-20.0173],[-44.49825,-20.0128],[-44.51595,-19.99651],[-44.51361,-19.98302],[-44.52167,-19.98106],[-44.52422,-19.9749],[-44.52958,-19.97548],[-44.54178,-19.9671],[-44.53398,-19.95493],[-44.52723,-19.95295],[-44.52464,-19.95603],[-44.51804,-19.94075],[-44.50854,-19.93298],[-44.50847,-19.92763],[-44.49983,-19.92994],[-44.4819,-19.91977],[-44.47933,-19.91597],[-44.45731,-19.91739],[-44.45727,-19.92364]]]}},{"type":"Feature","properties":{"id":"3141108","name":"Matozinhos"},"geometry":{"type":"Polygon","coordinates":[[[-43.9765,-19.40273],[-43.9725,-19.41001],[-43.96336,-19.40947],[-43.95823,-19.4129],[-43.95687,-19.43152],[-43.94859,-19.42808],[-43.94681,-19.43191],[-43.95425,-19.43547],[-43.95717,-19.43348],[-43.95853,-19.44351],[-43.95603,-19.44523],[-43.9466,-19.43943],[-43.9465,-19.43948],[-43.94342,-19.44568],[-43.93065,-19.44188],[-43.9294,-19.44467],[-43.93351,-19.44836],[-43.9472,-19.45731],[-43.95308,-19.45952],[-43.95651,-19.4568],[-43.95992,-19.46068],[-43.95405,-19.46735],[-43.94048,-19.46296],[-43.93628,-19.46751],[-43.93842,-19.4733],[-43.94603,-19.47104],[-43.952,-19.47719],[-43.9555,-19.47539],[-43.95425,-19.48106],[-43.94667,-19.48071],[-43.9457,-19.48311],[-43.95089,-19.48741],[-43.95778,-19.50781],[-43.98434,-19.5154],[-43.98511,-19.53741],[-43.9895,-19.54001],[-43.99945,-19.53605],[-44.00314,-19.54592],[-44.01025,-19.54692],[-44.01263,-19.55523],[-44.03445,-19.55951],[-44.03617,-19.55974],[-44.04729,-19.56051],[-44.04809,-19.58118],[-44.04505,-19.59193],[-44.04906,-19.59438],[-44.05982,-19.59976],[-44.06995,-19.59162],[-44.08386,-19.6041],[-44.09441,-19.60874],[-44.09972,-19.6152],[-44.12799,-19.6205],[-44.14666,-19.63156],[-44.14822,-19.64189],[-44.17125,-19.65374],[-44.1768,-19.65888],[-44.1765,-19.66492],[-44.18822,-19.65912],[-44.19476,-19.66238],[-44.19809,-19.65952],[-44.19794,-19.64215],[-44.1872,-19.61838],[-44.17167,-19.61187],[-44.16931,-19.60264],[-44.16481,-19.59753],[-44.15951,-19.60124],[-44.14887,-19.5987],[-44.14142,-19.60345],[-44.13511,-19.5968],[-44.12908,-19.59906],[-44.12506,-19.59696],[-44.12467,-19.58772],[-44.11925,-19.58747],[-44.10734,-19.56968],[-44.11175,-19.56102],[-44.10514,-19.55585],[-44.11075,-19.55036],[-44.11152,-19.5496],[-44.11511,-19.54561],[-44.1118,-19.53127],[-44.11483,-19.52558],[-44.10769,-19.51785],[-44.11047,-19.50759],[-44.10833,-19.4997],[-44.08259,-19.48589],[-44.0807,-19.48047],[-44.08489,-19.47238],[-44.07442,-19.4693],[-44.06745,-19.46229],[-44.06115,-19.46841],[-44.04411,-19.47018],[-44.04683,-19.43857],[-44.04075,-19.42518],[-44.03042,-19.43189],[-44.02739,-19.44453],[-44.01883,-19.44818],[-44.00666,-19.4463],[-43.99831,-19.43027],[-43.99797,-19.42206],[-43.98598,-19.41333],[-43.98975,-19.40441],[-43.9866,-19.40328],[-43.98075,-19.39628],[-43.9765,-19.40273]]]}},{"type":"Feature","properties":{"id":"3144805","name":"Nova Lima"},"geometry":{"type":"Polygon","coordinates":[[[-43.87067,-19.92783],[-43.85892,-19.93152],[-43.85231,-19.92769],[-43.84816,-19.93079],[-43.84686,-19.92739],[-43.83472,-19.92738],[-43.84072,-19.93151],[-43.83603,-19.95003],[-43.83956,-19.95474],[-43.82412,-19.96687],[-43.82847,-19.97298],[-43.81774,-19.98397],[-43.82264,-19.98326],[-43.81966,-19.98932],[-43.81416,-19.994],[-43.81292,-19.99978],[-43.8172,-20.00251],[-43.81183,-20.00716],[-43.81236,-20.01081],[-43.79761,-20.02512],[-43.78314,-20.02886],[-43.79273,-20.04085],[-43.81457,-20.05158],[-43.81535,-20.05208],[-43.81708,-20.05991],[-43.82672,-20.06699],[-43.83236,-20.08217],[-43.84947,-20.09897],[-43.85354,-20.12051],[-43.85225,-20.13853],[-43.86239,-20.14796],[-43.86409,-20.15946],[-43.87361,-20.1624],[-43.86344,-20.17521],[-43.8581,-20.19051],[-43.85406,-20.19795],[-43.89445,-20.20984],[-43.89744,-20.20868],[-43.90152,-20.21429],[-43.90748,-20.21533],[-43.91414,-20.21176],[-43.92588,-20.21451],[-43.93497,-20.2081],[-43.9412,-20.20964],[-43.95183,-20.22457],[-43.95858,-20.21931],[-43.96575,-20.22276],[-43.97639,-20.22221],[-43.97933,-20.19183],[-43.97969,-20.18622],[-43.9727,-20.17731],[-43.97402,-20.17248],[-43.97642,-20.14688],[-43.9718,-20.13904],[-43.97606,-20.1334],[-43.97917,-20.12885],[-43.98401,-20.08954],[-43.99349,-20.07827],[-43.99492,-20.07689],[-43.99169,-20.06314],[-44.0018,-20.05692],[-43.99213,-20.02881],[-43.97497,-20.00844],[-43.96535,-20.00432],[-43.9394,-19.97445],[-43.91607,-19.96359],[-43.9096,-19.95968],[-43.89154,-19.94676],[-43.8753,-19.93203],[-43.87067,-19.92783]]]}},{"type":"Feature","properties":{"id":"3149309","name":"Pedro Leopoldo"},"geometry":{"type":"Polygon","coordinates":[[[-43.94203,-19.48496],[-43.94003,-19.49553],[-43.93197,-19.49468],[-43.92884,-19.50416],[-43.91573,-19.51466],[-43.923,-19.5192],[-43.92686,-19.53053],[-43.92195,-19.53586],[-43.92677,-19.53933],[-43.93352,-19.54364],[-43.94235,-19.5402],[-43.94795,-19.53553],[-43.95364,-19.53588],[-43.96003,-19.53965],[-43.96466,-19.5488],[-43.96491,-19.55346],[-43.96345,-19.556],[-43.96728,-19.55887],[-43.9652,-19.56217],[-43.96519,-19.57076],[-43.97377,-19.5742],[-43.96608,-19.58359],[-43.96994,-19.58701],[-43.97104,-19.59583],[-43.97135,-19.59828],[-43.98814,-19.59887],[-43.99296,-19.60293],[-43.9929,-19.61285],[-43.98746,-19.61751],[-43.99539,-19.62349],[-44.00308,-19.62725],[-43.9984,-19.63509],[-43.99597,-19.6398],[-44.00638,-19.64875],[-44.00433,-19.65445],[-44.00454,-19.65458],[-44.01272,-19.65983],[-44.01277,-19.67325],[-44.02158,-19.67262],[-44.04076,-19.68187],[-44.04151,-19.6886],[-44.034,-19.69508],[-44.03958,-19.70073],[-44.03461,-19.70837],[-44.02074,-19.71219],[-44.00815,-19.7044],[-44.0062,-19.71268],[-44.00961,-19.72006],[-44.00722,-19.72173],[-44.00513,-19.73674],[-44.00772,-19.73896],[-44.01022,-19.74184],[-44.01347,-19.74644],[-44.03273,-19.76468],[-44.04108,-19.77322],[-44.05039,-19.77045],[-44.05517,-19.76194],[-44.05062,-19.75445],[-44.0516,-19.74797],[-44.05568,-19.74513],[-44.0672,-19.74481],[-44.06579,-19.73539],[-44.06228,-19.72551],[-44.06823,-19.71666],[-44.08197,-19.7271],[-44.1045,-19.73693],[-44.11548,-19.72927],[-44.11727,-19.72234],[-44.13071,-19.71568],[-44.13274,-19.7095],[-44.13315,-19.70876],[-44.14131,-19.70471],[-44.14937,-19.685],[-44.15595,-19.68423],[-44.15892,-19.67368],[-44.16214,-19.67881],[-44.18453,-19.68104],[-44.19482,-19.67159],[-44.19476,-19.66238],[-44.18822,-19.65912],[-44.1765,-19.66492],[-44.1768,-19.65888],[-44.17125,-19.65374],[-44.14822,-19.64189],[-44.14666,-19.63156],[-44.12799,-19.6205],[-44.09972,-19.6152],[-44.09441,-19.60874],[-44.08386,-19.6041],[-44.06995,-19.59162],[-44.05982,-19.59976],[-44.04906,-19.59438],[-44.04505,-19.59193],[-44.04809,-19.58118],[-44.04729,-19.56051],[-44.03617,-19.55974],[-44.03445,-19.55951],[-44.01263,-19.55523],[-44.01025,-19.54692],[-44.00314,-19.54592],[-43.99945,-19.53605],[-43.9895,-19.54001],[-43.98511,-19.53741],[-43.98434,-19.5154],[-43.95778,-19.50781],[-43.95089,-19.48741],[-43.94837,-19.49095],[-43.94203,-19.48496]]]}},{"type":"Feature","properties":{"id":"3153905","name":"Raposos"},"geometry":{"type":"Polygon","coordinates":[[[-43.83472,-19.92738],[-43.83336,-19.93995],[-43.82722,-19.93446],[-43.82825,-19.93975],[-43.82626,-19.94424],[-43.82384,-19.94103],[-43.8115,-19.94316],[-43.79189,-19.95031],[-43.77786,-19.94383],[-43.77456,-19.95051],[-43.75955,-19.95734],[-43.74719,-19.95827],[-43.73616,-19.9543],[-43.73341,-19.96062],[-43.7228,-19.96694],[-43.7317,-19.96764],[-43.73797,-19.98566],[-43.73478,-20.00008],[-43.75544,-20.02231],[-43.77516,-20.0178],[-43.78314,-20.02886],[-43.79761,-20.02512],[-43.81236,-20.01081],[-43.81183,-20.00716],[-43.8172,-20.00251],[-43.81292,-19.99978],[-43.81416,-19.994],[-43.81966,-19.98932],[-43.82264,-19.98326],[-43.81774,-19.98397],[-43.82847,-19.97298],[-43.82412,-19.96687],[-43.83956,-19.95474],[-43.83603,-19.95003],[-43.84072,-19.93151],[-43.83472,-19.92738]]]}},{"type":"Feature","properties":{"id":"3154606","name":"Ribeirão das Neves"},"geometry":{"type":"Polygon","coordinates":[[[-44.11548,-19.72927],[-44.1045,-19.73693],[-44.08197,-19.7271],[-44.06823,-19.71666],[-44.06228,-19.72551],[-44.06579,-19.73539],[-44.0672,-19.74481],[-44.05568,-19.74513],[-44.0516,-19.74797],[-44.05062,-19.75445],[-44.05517,-19.76194],[-44.05039,-19.77045],[-44.04108,-19.77322],[-44.03273,-19.76468],[-44.01347,-19.74644],[-44.01022,-19.74184],[-44.00772,-19.73896],[-44.00513,-19.73674],[-43.99247,-19.7448],[-43.99494,-19.75196],[-43.99488,-19.75304],[-43.9962,-19.75947],[-43.98989,-19.76579],[-43.98744,-19.76471],[-43.98313,-19.76864],[-43.97527,-19.77559],[-43.97578,-19.78119],[-43.99011,-19.78539],[-43.99189,-19.79523],[-44.00191,-19.80185],[-44.00756,-19.81302],[-44.00534,-19.82091],[-44.00975,-19.82554],[-44.01358,-19.82582],[-44.01276,-19.82957],[-44.01683,-19.83118],[-44.02489,-19.82967],[-44.02887,-19.83506],[-44.03766,-19.83791],[-44.04581,-19.83267],[-44.04819,-19.83839],[-44.05781,-19.84481],[-44.0662,-19.84506],[-44.0707,-19.84096],[-44.07433,-19.83962],[-44.07623,-19.84336],[-44.08147,-19.83442],[-44.09567,-19.82402],[-44.10159,-19.81998],[-44.10261,-19.80767],[-44.11719,-19.80415],[-44.11865,-19.79894],[-44.12631,-19.801],[-44.13362,-19.79881],[-44.13398,-19.79878],[-44.14225,-19.77941],[-44.15526,-19.76529],[-44.16124,-19.76299],[-44.1642,-19.75685],[-44.15745,-19.74128],[-44.14225,-19.73489],[-44.14295,-19.72594],[-44.13747,-19.71111],[-44.13315,-19.70876],[-44.13274,-19.7095],[-44.13071,-19.71568],[-44.11727,-19.72234],[-44.11548,-19.72927]]]}},{"type":"Feature","properties":{"id":"3154804","name":"Rio Acima"},"geometry":{"type":"Polygon","coordinates":[[[-43.73189,-20.01577],[-43.72956,-20.02398],[-43.73241,-20.02501],[-43.73255,-20.03326],[-43.72723,-20.05733],[-43.71035,-20.07546],[-43.70032,-20.0771],[-43.69233,-20.07419],[-43.68925,-20.07528],[-43.69114,-20.0792],[-43.68322,-20.09242],[-43.66314,-20.11371],[-43.65904,-20.12491],[-43.66333,-20.13255],[-43.69231,-20.13894],[-43.69422,-20.14837],[-43.71136,-20.14092],[-43.72194,-20.1493],[-43.73297,-20.1491],[-43.74486,-20.15392],[-43.75644,-20.15421],[-43.75995,-20.14877],[-43.7876,-20.15165],[-43.78703,-20.15565],[-43.78134,-20.15821],[-43.78608,-20.16199],[-43.78533,-20.16744],[-43.79353,-20.17453],[-43.79441,-20.18],[-43.80311,-20.17622],[-43.80389,-20.17278],[-43.80317,-20.17799],[-43.80713,-20.18232],[-43.8141,-20.18109],[-43.83808,-20.18219],[-43.85152,-20.18919],[-43.85406,-20.19795],[-43.8581,-20.19051],[-43.86344,-20.17521],[-43.87361,-20.1624],[-43.86409,-20.15946],[-43.86239,-20.14796],[-43.85225,-20.13853],[-43.85354,-20.12051],[-43.84947,-20.09897],[-43.83236,-20.08217],[-43.82672,-20.06699],[-43.81708,-20.05991],[-43.81535,-20.05208],[-43.81457,-20.05158],[-43.79273,-20.04085],[-43.78314,-20.02886],[-43.77516,-20.0178],[-43.75544,-20.02231],[-43.73478,-20.00008],[-43.73281,-20.00929],[-43.72678,-20.01393],[-43.73189,-20.01577]]]}},{"type":"Feature","properties":{"id":"3155306","name":"Rio Manso"},"geometry":{"type":"Polygon","coordinates":[[[-44.33406,-20.16885],[-44.33255,-20.17314],[-44.32812,-20.17087],[-44.32277,-20.17648],[-44.30625,-20.18242],[-44.29942,-20.17723],[-44.28722,-20.17913],[-44.27777,-20.17083],[-44.27348,-20.19109],[-44.28044,-20.20317],[-44.27503,-20.22398],[-44.26828,-20.22594],[-44.2672,-20.25077],[-44.26983,-20.25369],[-44.26796,-20.26221],[-44.26845,-20.27371],[-44.25883,-20.28479],[-44.2681,-20.29575],[-44.27261,-20.29635],[-44.27817,-20.30038],[-44.27795,-20.31047],[-44.289,-20.3177],[-44.28911,-20.32414],[-44.29759,-20.32409],[-44.30233,-20.31696],[-44.30978,-20.3149],[-44.32064,-20.32849],[-44.32822,-20.33065],[-44.32904,-20.3296],[-44.33492,-20.32212],[-44.34942,-20.32308],[-44.35611,-20.3285],[-44.35611,-20.33628],[-44.36753,-20.33611],[-44.38115,-20.3473],[-44.39366,-20.35213],[-44.40953,-20.34498],[-44.42045,-20.34824],[-44.42886,-20.34347],[-44.43736,-20.34656],[-44.44108,-20.33508],[-44.43814,-20.32604],[-44.44589,-20.32334],[-44.44445,-20.31317],[-44.44741,-20.30749],[-44.43694,-20.29876],[-44.43554,-20.29176],[-44.43472,-20.28466],[-44.42697,-20.28392],[-44.42693,-20.27647],[-44.42656,-20.2752],[-44.41995,-20.25347],[-44.40461,-20.25266],[-44.39105,-20.25772],[-44.37084,-20.24632],[-44.36253,-20.24827],[-44.35963,-20.24403],[-44.35926,-20.23814],[-44.36303,-20.23641],[-44.36634,-20.22695],[-44.35781,-20.21909],[-44.3605,-20.21338],[-44.35125,-20.19376],[-44.35306,-20.18877],[-44.36209,-20.18461],[-44.36427,-20.17556],[-44.3504,-20.16005],[-44.35041,-20.15947],[-44.33847,-20.16468],[-44.33406,-20.16885]]]}},{"type":"Feature","properties":{"id":"3156700","name":"Sabará"},"geometry":{"type":"Polygon","coordinates":[[[-43.72778,-19.73482],[-43.72323,-19.74285],[-43.70972,-19.74058],[-43.70886,-19.74735],[-43.70581,-19.75355],[-43.69692,-19.75439],[-43.68859,-19.76703],[-43.68809,-19.78664],[-43.68793,-19.78694],[-43.69136,-19.79973],[-43.68131,-19.80816],[-43.68003,-19.81297],[-43.67477,-19.81365],[-43.67338,-19.82014],[-43.67634,-19.82269],[-43.69368,-19.82412],[-43.70066,-19.82161],[-43.71844,-19.8289],[-43.71329,-19.8395],[-43.71454,-19.8497],[-43.72303,-19.86062],[-43.71156,-19.87453],[-43.70761,-19.88685],[-43.71694,-19.88795],[-43.72323,-19.87786],[-43.72783,-19.87971],[-43.73428,-19.87706],[-43.7386,-19.8798],[-43.73708,-19.88866],[-43.73998,-19.89244],[-43.74866,-19.89732],[-43.74725,-19.90089],[-43.74669,-19.90707],[-43.73472,-19.91946],[-43.72962,-19.94241],[-43.71948,-19.95668],[-43.7228,-19.96694],[-43.73341,-19.96062],[-43.73616,-19.9543],[-43.74719,-19.95827],[-43.75955,-19.95734],[-43.77456,-19.95051],[-43.77786,-19.94383],[-43.79189,-19.95031],[-43.8115,-19.94316],[-43.82384,-19.94103],[-43.82626,-19.94424],[-43.82825,-19.93975],[-43.82722,-19.93446],[-43.83336,-19.93995],[-43.83472,-19.92738],[-43.84686,-19.92739],[-43.84816,-19.93079],[-43.85231,-19.92769],[-43.85892,-19.93152],[-43.87067,-19.92783],[-43.869,-19.92428],[-43.8817,-19.90541],[-43.88133,-19.90117],[-43.88651,-19.89197],[-43.88992,-19.89188],[-43.89123,-19.88486],[-43.90556,-19.88556],[-43.90913,-19.87576],[-43.89892,-19.87453],[-43.8962,-19.8636],[-43.88213,-19.86134],[-43.87678,-19.86701],[-43.86253,-19.85544],[-43.8569,-19.85733],[-43.86632,-19.84719],[-43.86752,-19.83949],[-43.86309,-19.83708],[-43.86558,-19.83088],[-43.86184,-19.82691],[-43.8548,-19.83371],[-43.85,-19.83213],[-43.8453,-19.82914],[-43.83733,-19.82509],[-43.82986,-19.82813],[-43.82597,-19.83413],[-43.81739,-19.83237],[-43.80775,-19.8417],[-43.8052,-19.83805],[-43.79203,-19.83527],[-43.78025,-19.84845],[-43.7667,-19.84095],[-43.78042,-19.8366],[-43.78506,-19.82381],[-43.78024,-19.82073],[-43.77501,-19.80881],[-43.7927,-19.80472],[-43.79822,-19.79849],[-43.79897,-19.79128],[-43.80386,-19.78588],[-43.80376,-19.77171],[-43.80398,-19.76191],[-43.79616,-19.7541],[-43.77966,-19.75407],[-43.76809,-19.74403],[-43.76575,-19.73801],[-43.77142,-19.73599],[-43.76856,-19.72988],[-43.77064,-19.7258],[-43.76378,-19.72468],[-43.75703,-19.73054],[-43.72778,-19.73482]]]}},{"type":"Feature","properties":{"id":"3157807","name":"Santa Luzia"},"geometry":{"type":"Polygon","coordinates":[[[-43.76039,-19.61159],[-43.75586,-19.62589],[-43.7597,-19.64146],[-43.75566,-19.6552],[-43.75922,-19.66179],[-43.75447,-19.66563],[-43.77252,-19.68761],[-43.77186,-19.70235],[-43.78032,-19.70704],[-43.78273,-19.7144],[-43.77937,-19.71624],[-43.77636,-19.71486],[-43.77064,-19.7258],[-43.76856,-19.72988],[-43.77142,-19.73599],[-43.76575,-19.73801],[-43.76809,-19.74403],[-43.77966,-19.75407],[-43.79616,-19.7541],[-43.80398,-19.76191],[-43.80376,-19.77171],[-43.80386,-19.78588],[-43.79897,-19.79128],[-43.79822,-19.79849],[-43.7927,-19.80472],[-43.77501,-19.80881],[-43.78024,-19.82073],[-43.78506,-19.82381],[-43.78042,-19.8366],[-43.7667,-19.84095],[-43.78025,-19.84845],[-43.79203,-19.83527],[-43.8052,-19.83805],[-43.80775,-19.8417],[-43.81739,-19.83237],[-43.82597,-19.83413],[-43.82986,-19.82813],[-43.83733,-19.82509],[-43.8453,-19.82914],[-43.85,-19.83213],[-43.8548,-19.83371],[-43.86184,-19.82691],[-43.86836,-19.82499],[-43.86936,-19.81947],[-43.87581,-19.81851],[-43.87667,-19.81337],[-43.88934,-19.81541],[-43.89836,-19.80854],[-43.89877,-19.80194],[-43.90219,-19.80439],[-43.91375,-19.79714],[-43.92033,-19.80271],[-43.9335,-19.79515],[-43.94319,-19.79761],[-43.94734,-19.79227],[-43.94578,-19.77679],[-43.94358,-19.76289],[-43.93155,-19.75892],[-43.92347,-19.74741],[-43.9172,-19.74928],[-43.91506,-19.7446],[-43.90383,-19.74047],[-43.90592,-19.73308],[-43.90716,-19.73055],[-43.88534,-19.72127],[-43.89144,-19.71766],[-43.89111,-19.70797],[-43.8971,-19.69863],[-43.89249,-19.70065],[-43.88456,-19.69442],[-43.88147,-19.70002],[-43.87221,-19.70233],[-43.84758,-19.71564],[-43.83852,-19.7049],[-43.83178,-19.71241],[-43.81647,-19.71649],[-43.81403,-19.71476],[-43.81517,-19.70406],[-43.80881,-19.69628],[-43.809,-19.68746],[-43.80173,-19.68672],[-43.80406,-19.68518],[-43.79872,-19.67677],[-43.80567,-19.67073],[-43.80602,-19.66535],[-43.79922,-19.66863],[-43.79232,-19.66132],[-43.79537,-19.65828],[-43.81103,-19.65667],[-43.80936,-19.63948],[-43.81756,-19.64015],[-43.81444,-19.63297],[-43.81578,-19.61836],[-43.80434,-19.62562],[-43.79967,-19.62114],[-43.79867,-19.6128],[-43.78686,-19.60914],[-43.78483,-19.6132],[-43.78227,-19.61113],[-43.77561,-19.61161],[-43.77642,-19.61923],[-43.77211,-19.62035],[-43.76922,-19.6068],[-43.76039,-19.61159]]]}},{"type":"Feature","properties":{"id":"3162922","name":"São Joaquim de Bicas"},"geometry":{"type":"Polygon","coordinates":[[[-44.26199,-20.03377],[-44.25648,-20.03719],[-44.25359,-20.04482],[-44.24745,-20.04132],[-44.24505,-20.04548],[-44.24486,-20.04581],[-44.24125,-20.04962],[-44.23717,-20.04879],[-44.23471,-20.03771],[-44.22666,-20.03682],[-44.21525,-20.04155],[-44.21728,-20.04813],[-44.20602,-20.04325],[-44.20253,-20.04326],[-44.19622,-20.05093],[-44.19778,-20.05738],[-44.20876,-20.06139],[-44.21385,-20.06588],[-44.20801,-20.07363],[-44.20985,-20.10052],[-44.25097,-20.1237],[-44.27759,-20.11096],[-44.27609,-20.10321],[-44.28367,-20.09737],[-44.2857,-20.08434],[-44.2819,-20.07586],[-44.28372,-20.06437],[-44.29161,-20.05891],[-44.28297,-20.04626],[-44.28905,-20.03508],[-44.28305,-20.03539],[-44.27722,-20.03077],[-44.27023,-20.00431],[-44.26589,-20.00034],[-44.25903,-20.00294],[-44.25211,-20.01598],[-44.25719,-20.01932],[-44.25415,-20.02482],[-44.2607,-20.02813],[-44.26199,-20.03377]]]}},{"type":"Feature","properties":{"id":"3162955","name":"São José da Lapa"},"geometry":{"type":"Polygon","coordinates":[[[-43.99333,-19.67118],[-43.99206,-19.68414],[-43.98493,-19.68766],[-43.97706,-19.6853],[-43.97644,-19.67926],[-43.97128,-19.68061],[-43.96541,-19.66879],[-43.95514,-19.67123],[-43.93759,-19.699],[-43.93566,-19.70807],[-43.94819,-19.70651],[-43.95509,-19.71276],[-43.95692,-19.71971],[-43.96025,-19.72239],[-43.96995,-19.71384],[-43.97977,-19.73283],[-43.98,-19.73307],[-43.98775,-19.73698],[-43.99414,-19.7267],[-43.99964,-19.72605],[-44.00217,-19.72091],[-44.00722,-19.72173],[-44.00961,-19.72006],[-44.0062,-19.71268],[-44.00815,-19.7044],[-44.02074,-19.71219],[-44.03461,-19.70837],[-44.03958,-19.70073],[-44.034,-19.69508],[-44.04151,-19.6886],[-44.04076,-19.68187],[-44.02158,-19.67262],[-44.01277,-19.67325],[-44.01272,-19.65983],[-44.00454,-19.65458],[-44.00433,-19.65445],[-44.00309,-19.65905],[-43.99848,-19.66049],[-43.99774,-19.66221],[-43.99917,-19.66798],[-43.99333,-19.67118]]]}},{"type":"Feature","properties":{"id":"3165537","name":"Sarzedo"},"geometry":{"type":"Polygon","coordinates":[[[-44.1435,-20.01834],[-44.13739,-20.03081],[-44.12653,-20.03012],[-44.12406,-20.02203],[-44.11694,-20.02367],[-44.09304,-20.02856],[-44.09354,-20.03512],[-44.08926,-20.03825],[-44.09247,-20.04188],[-44.08873,-20.05132],[-44.082,-20.06108],[-44.0737,-20.06475],[-44.07475,-20.06835],[-44.06708,-20.07228],[-44.06347,-20.07893],[-44.08292,-20.08892],[-44.09078,-20.09448],[-44.10559,-20.09823],[-44.12264,-20.09871],[-44.14398,-20.08768],[-44.1486,-20.07323],[-44.14847,-20.06071],[-44.15817,-20.05499],[-44.16012,-20.05142],[-44.16436,-20.05341],[-44.18169,-20.04609],[-44.1745,-20.03782],[-44.18009,-20.03639],[-44.17855,-20.0306],[-44.16876,-20.02936],[-44.16239,-20.02449],[-44.15788,-20.02967],[-44.15228,-20.03008],[-44.15108,-20.01819],[-44.1435,-20.01834]]]}},{"type":"Feature","properties":{"id":"3168309","name":"Taquaraçu de Minas"},"geometry":{"type":"Polygon","coordinates":[[[-43.58254,-19.53294],[-43.58089,-19.5385],[-43.57678,-19.5377],[-43.57567,-19.54569],[-43.58632,-19.55224],[-43.59344,-19.5769],[-43.59628,-19.6032],[-43.59639,-19.60574],[-43.5997,-19.62741],[-43.61177,-19.63988],[-43.61394,-19.64356],[-43.61119,-19.65083],[-43.61689,-19.65862],[-43.62603,-19.66497],[-43.61697,-19.67434],[-43.62665,-19.67691],[-43.6315,-19.67825],[-43.62991,-19.68546],[-43.63395,-19.6873],[-43.62903,-19.69465],[-43.63647,-19.70093],[-43.63328,-19.71391],[-43.64902,-19.72328],[-43.65521,-19.7325],[-43.65529,-19.73249],[-43.6636,-19.73203],[-43.67606,-19.72369],[-43.69766,-19.73048],[-43.70289,-19.72704],[-43.71177,-19.73676],[-43.70667,-19.74213],[-43.70886,-19.74735],[-43.70972,-19.74058],[-43.72323,-19.74285],[-43.72778,-19.73482],[-43.75703,-19.73054],[-43.76378,-19.72468],[-43.77064,-19.7258],[-43.77636,-19.71486],[-43.77937,-19.71624],[-43.78273,-19.7144],[-43.78032,-19.70704],[-43.77186,-19.70235],[-43.77252,-19.68761],[-43.75447,-19.66563],[-43.75922,-19.66179],[-43.75566,-19.6552],[-43.7597,-19.64146],[-43.75586,-19.62589],[-43.76039,-19.61159],[-43.76922,-19.6068],[-43.77211,-19.62035],[-43.77642,-19.61923],[-43.77561,-19.61161],[-43.78227,-19.61113],[-43.78128,-19.60791],[-43.78497,-19.60527],[-43.77619,-19.59451],[-43.77646,-19.584],[-43.77388,-19.57953],[-43.76962,-19.57935],[-43.76539,-19.56384],[-43.75383,-19.55459],[-43.74186,-19.55645],[-43.73303,-19.55208],[-43.72844,-19.55642],[-43.71828,-19.54932],[-43.70853,-19.55322],[-43.70064,-19.56399],[-43.69156,-19.55908],[-43.68616,-19.55124],[-43.67738,-19.55807],[-43.66817,-19.54794],[-43.66175,-19.56116],[-43.65436,-19.56513],[-43.6468,-19.56026],[-43.63741,-19.56105],[-43.63933,-19.55249],[-43.62095,-19.54193],[-43.6175,-19.53531],[-43.60489,-19.53231],[-43.59939,-19.52389],[-43.59122,-19.52144],[-43.58269,-19.51376],[-43.58254,-19.53294]]]}},{"type":"Feature","properties":{"id":"3171204","name":"Vespasiano"},"geometry":{"type":"Polygon","coordinates":[[[-43.92595,-19.68488],[-43.92027,-19.68626],[-43.91992,-19.68205],[-43.91436,-19.68042],[-43.906,-19.6805],[-43.90231,-19.68409],[-43.90381,-19.69041],[-43.91392,-19.69371],[-43.91411,-19.69804],[-43.90172,-19.70083],[-43.8971,-19.69863],[-43.89111,-19.70797],[-43.89144,-19.71766],[-43.88534,-19.72127],[-43.90716,-19.73055],[-43.90592,-19.73308],[-43.90383,-19.74047],[-43.91506,-19.7446],[-43.9172,-19.74928],[-43.92347,-19.74741],[-43.93155,-19.75892],[-43.94358,-19.76289],[-43.94578,-19.77679],[-43.94832,-19.77677],[-43.95911,-19.778],[-43.96578,-19.78485],[-43.96525,-19.79121],[-43.97578,-19.78119],[-43.97527,-19.77559],[-43.98313,-19.76864],[-43.98744,-19.76471],[-43.98989,-19.76579],[-43.9962,-19.75947],[-43.99488,-19.75304],[-43.99494,-19.75196],[-43.99247,-19.7448],[-44.00513,-19.73674],[-44.00722,-19.72173],[-44.00217,-19.72091],[-43.99964,-19.72605],[-43.99414,-19.7267],[-43.98775,-19.73698],[-43.98,-19.73307],[-43.97977,-19.73283],[-43.96995,-19.71384],[-43.96025,-19.72239],[-43.95692,-19.71971],[-43.95509,-19.71276],[-43.94819,-19.70651],[-43.93566,-19.70807],[-43.93759,-19.699],[-43.95514,-19.67123],[-43.9445,-19.67123],[-43.93732,-19.67993],[-43.93078,-19.6799],[-43.92595,-19.68488]]]}}]}